NORAD_CAT_ID,OBJECT_NAME,OBJECT_TYPE,EPOCH,MEAN_MOTION,ECCENTRICITY,INCLINATION,RA_OF_ASC_NODE,ARG_OF_PERICENTER,MEAN_ANOMALY,BSTAR,MEAN_MOTION_DOT,MEAN_MOTION_DDOT,TLE_LINE0,TLE_LINE1,TLE_LINE2,SEMIMAJOR_AXIS,PERIOD,APOGEE,PERIGEE,DECAYED
51992.0,STARLINK-3643,PAYLOAD,2024-03-21 11:51:06,15.08833931,0.000119,53.2184,3.2245,79.5585,280.5541,-7.1199e-05,-1.421e-05,0.0,0 STARLINK-3643,1 51992U 22025AN  24081.49382939 -.00001421  00000-0 -71199-4 0  9990,2 51992  53.2184   3.2245 0001190  79.5585 280.5541 15.08833931112489,6917.899,95.438,540.587,538.941,0.0
51992.0,STARLINK-3643,PAYLOAD,2024-03-22 03:44:56,15.08862691,0.0001379,53.2186,0.248,129.059,231.0525,0.00057825,8.933e-05,0.0,0 STARLINK-3643,1 51992U 22025AN  24082.15621395  .00008933  00000-0  57825-3 0  9998,2 51992  53.2186   0.2480 0001379 129.0590 231.0525 15.08862691114137,6917.811,95.436,540.63,538.722,0.0
51992.0,STARLINK-3643,PAYLOAD,2024-03-22 22:49:35,15.08843059,0.0001711,53.2179,356.6786,121.1645,238.9515,0.00022845,3.35e-05,0.0,0 STARLINK-3643,1 51992U 22025AN  24082.95110644  .00003350  00000-0  22845-3 0  9998,2 51992  53.2179 356.6786 0001711 121.1645 238.9515 15.08843059112703,6917.871,95.437,540.92,538.552,0.0
51992.0,STARLINK-3643,PAYLOAD,2024-03-23 03:35:44,15.08855923,0.000135,53.2181,355.7866,75.972,284.1422,0.00052139,8.023e-05,0.0,0 STARLINK-3643,1 51992U 22025AN  24083.14982520  .00008023  00000-0  52139-3 0  9991,2 51992  53.2181 355.7866 0001350  75.9720 284.1422 15.08855923114282,6917.832,95.437,540.631,538.763,0.0
51992.0,STARLINK-3643,PAYLOAD,2024-03-23 22:40:22,15.08844444,0.0001733,53.2202,352.2168,94.5222,265.5968,0.00031602,4.746e-05,0.0,0 STARLINK-3643,1 51992U 22025AN  24083.94470808  .00004746  00000-0  31602-3 0  9990,2 51992  53.2202 352.2168 0001733  94.5222 265.5968 15.08844444112857,6917.867,95.437,540.931,538.533,0.0
51992.0,STARLINK-3643,PAYLOAD,2024-03-24 00:15:45,15.08843014,0.0002039,53.2204,351.9152,63.194,296.9261,0.00051552,7.927e-05,0.0,0 STARLINK-3643,1 51992U 22025AN  24084.01094906  .00007927  00000-0  51552-3 0  9990,2 51992  53.2204 351.9152 0002039  63.1940 296.9261 15.08843014114417,6917.871,95.437,541.147,538.326,0.0
51992.0,STARLINK-3643,PAYLOAD,2024-03-24 11:23:28,15.08840718,0.0001527,53.2199,349.8414,106.2622,253.8538,0.00055013,8.478e-05,0.0,0 STARLINK-3643,1 51992U 22025AN  24084.47463206  .00008478  00000-0  55013-3 0  9991,2 51992  53.2199 349.8414 0001527 106.2622 253.8538 15.08840718112936,6917.878,95.438,540.8,538.687,0.0
51992.0,STARLINK-3643,PAYLOAD,2024-03-24 20:55:47,15.0884481,0.0002411,53.2209,348.0541,121.5047,238.6181,0.00057307,8.845e-05,0.0,0 STARLINK-3643,1 51992U 22025AN  24084.87207523  .00008845  00000-0  57307-3 0  9999,2 51992  53.2209 348.0541 0002411 121.5047 238.6181 15.08844810114545,6917.866,95.437,541.399,538.063,0.0
51992.0,STARLINK-3643,PAYLOAD,2024-03-24 22:31:10,15.08839157,0.0001955,53.2206,347.7605,91.7589,268.3627,0.00053419,8.224e-05,0.0,0 STARLINK-3643,1 51992U 22025AN  24084.93831640  .00008224  00000-0  53419-3 0  9990,2 51992  53.2206 347.7605 0001955  91.7589 268.3627 15.08839157113003,6917.883,95.438,541.1,538.396,0.0
51992.0,STARLINK-3643,PAYLOAD,2024-03-25 03:17:19,15.08841299,0.0001636,53.2183,346.8681,89.9249,270.1931,0.00070842,0.00011005,0.0,0 STARLINK-3643,1 51992U 22025AN  24085.13703606  .00011005  00000-0  70842-3 0  9993,2 51992  53.2183 346.8681 0001636  89.9249 270.1931 15.08841299114582,6917.876,95.437,540.873,538.61,0.0
51992.0,STARLINK-3643,PAYLOAD,2024-03-25 20:46:34,15.0884354,0.0001569,53.2182,343.5957,99.2181,260.8989,0.00063103,9.77e-05,0.0,0 STARLINK-3643,1 51992U 22025AN  24085.86567856  .00009770  00000-0  63103-3 0  9996,2 51992  53.2182 343.5957 0001569  99.2181 260.8989 15.08843540114697,6917.87,95.437,540.82,538.649,0.0
51992.0,STARLINK-3643,PAYLOAD,2024-03-25 22:21:57,15.08844088,0.000155,53.2185,343.2985,99.1108,261.006,0.00064223,9.949e-05,0.0,0 STARLINK-3643,1 51992U 22025AN  24085.93191832  .00009949  00000-0  64223-3 0  9993,2 51992  53.2185 343.2985 0001550  99.1108 261.0060 15.08844088113157,6917.868,95.437,540.805,538.661,0.0
51992.0,STARLINK-3643,PAYLOAD,2024-03-26 09:29:39,15.08853544,0.0001602,53.2187,341.2181,90.734,269.3836,0.00059234,9.155e-05,0.0,0 STARLINK-3643,1 51992U 22025AN  24086.39559491  .00009155  00000-0  59234-3 0  9998,2 51992  53.2187 341.2181 0001602  90.7340 269.3836 15.08853544113225,6917.839,95.437,540.812,538.596,0.0
51992.0,STARLINK-3643,PAYLOAD,2024-03-26 20:37:20,15.08872716,0.0002775,53.2192,339.1396,128.6777,231.4464,0.00067256,0.00010442,0.0,0 STARLINK-3643,1 51992U 22025AN  24086.85926167  .00010442  00000-0  67256-3 0  9991,2 51992  53.2192 339.1396 0002775 128.6777 231.4464 15.08872716114840,6917.78,95.435,541.565,537.726,0.0
51992.0,STARLINK-3643,PAYLOAD,2024-03-26 22:12:43,15.08872051,0.000197,53.2187,338.841,108.3827,251.7379,0.00070334,0.00010933,0.0,0 STARLINK-3643,1 51992U 22025AN  24086.92550339  .00010933  00000-0  70334-3 0  9999,2 51992  53.2187 338.8410 0001970 108.3827 251.7379 15.08872051113306,6917.782,95.436,541.01,538.285,0.0
51992.0,STARLINK-3643,PAYLOAD,2024-03-27 09:20:25,15.0884767,0.0001403,53.2161,336.7606,80.2139,279.9011,7.3894e-05,8.89e-06,0.0,0 STARLINK-3643,1 51992U 22025AN  24087.38918865  .00000889  00000-0  73894-4 0  9996,2 51992  53.2161 336.7606 0001403  80.2139 279.9011 15.08847670114920,6917.857,95.437,540.693,538.751,0.0
51992.0,STARLINK-3643,PAYLOAD,2024-03-27 20:28:08,15.08835977,0.0001686,53.2184,334.6811,112.6452,247.4719,-0.00020101,-3.485e-05,0.0,0 STARLINK-3643,1 51992U 22025AN  24087.85287291 -.00003485  00000-0 -20101-3 0  9999,2 51992  53.2184 334.6811 0001686 112.6452 247.4719 15.08835977114990,6917.893,95.438,540.924,538.591,0.0
51992.0,STARLINK-3643,PAYLOAD,2024-03-27 22:03:31,15.0883573,0.0001437,53.2172,334.3835,94.0316,266.0841,-0.00016328,-2.885e-05,0.0,0 STARLINK-3643,1 51992U 22025AN  24087.91911355 -.00002885  00000-0 -16328-3 0  9990,2 51992  53.2172 334.3835 0001437  94.0316 266.0841 15.08835730113456,6917.893,95.438,540.753,538.764,0.0
51992.0,STARLINK-3643,PAYLOAD,2024-03-28 09:11:13,15.08839728,0.0001393,53.2169,332.2983,73.9095,286.205,-1.7021e-05,-5.59e-06,0.0,0 STARLINK-3643,1 51992U 22025AN  24088.38279298 -.00000559  00000-0 -17021-4 0  9993,2 51992  53.2169 332.2983 0001393  73.9095 286.2050 15.08839728113529,6917.881,95.438,540.71,538.783,0.0
51992.0,STARLINK-3643,PAYLOAD,2024-03-28 21:54:18,15.0882954,0.0001493,53.2181,329.9203,93.4532,266.6631,-0.00021685,-3.736e-05,0.0,0 STARLINK-3643,1 51992U 22025AN  24088.91271936 -.00003736  00000-0 -21685-3 0  9993,2 51992  53.2181 329.9203 0001493  93.4532 266.6631 15.08829540113602,6917.912,95.438,540.81,538.745,0.0
51992.0,STARLINK-3643,PAYLOAD,2024-03-29 01:05:05,15.08832178,0.0001441,53.2183,329.3253,92.0814,268.0344,-0.00014348,-2.57e-05,0.0,0 STARLINK-3643,1 51992U 22025AN  24089.04520109 -.00002570  00000-0 -14348-3 0  9990,2 51992  53.2183 329.3253 0001441  92.0814 268.0344 15.08832178115176,6917.904,95.438,540.766,538.772,0.0
51992.0,STARLINK-3643,PAYLOAD,2024-03-29 09:02:00,15.08840523,0.0001538,53.2188,327.8394,80.8526,279.2641,-3.3956e-05,-8.28e-06,0.0,0 STARLINK-3643,1 51992U 22025AN  24089.37639803 -.00000828  00000-0 -33956-4 0  9999,2 51992  53.2188 327.8394 0001538  80.8526 279.2641 15.08840523115225,6917.879,95.438,540.808,538.68,0.0
51992.0,STARLINK-3643,PAYLOAD,2024-03-29 21:45:06,15.08838547,0.0001354,53.2185,325.4603,82.9923,277.1224,0.00014989,2.098e-05,0.0,0 STARLINK-3643,1 51992U 22025AN  24089.90632311  .00002098  00000-0  14989-3 0  9998,2 51992  53.2185 325.4603 0001354  82.9923 277.1224 15.08838547113752,6917.885,95.438,540.687,538.813,0.0
51992.0,STARLINK-3643,PAYLOAD,2024-03-30 08:52:48,15.08838214,0.0001104,53.217,323.3806,105.7492,254.3622,0.00011603,1.559e-05,0.0,0 STARLINK-3643,1 51992U 22025AN  24090.37000395  .00001559  00000-0  11603-3 0  9993,2 51992  53.2170 323.3806 0001104 105.7492 254.3622 15.08838214115376,6917.886,95.438,540.515,538.987,0.0
51992.0,STARLINK-3643,PAYLOAD,2024-03-30 21:35:54,15.08830461,0.000121,53.219,321.0002,88.7382,271.3749,9.7887e-05,1.27e-05,0.0,0 STARLINK-3643,1 51992U 22025AN  24090.89993325  .00001270  00000-0  97887-4 0  9993,2 51992  53.2190 321.0002 0001210  88.7382 271.3749 15.08830461115451,6917.91,95.438,540.612,538.937,0.0
51992.0,STARLINK-3643,PAYLOAD,2024-03-31 08:43:35,15.08845143,0.000134,53.218,318.9194,87.4241,272.6905,0.00021325,3.108e-05,0.0,0 STARLINK-3643,1 51992U 22025AN  24091.36360697  .00003108  00000-0  21325-3 0  9991,2 51992  53.2180 318.9194 0001340  87.4241 272.6905 15.08845143115520,6917.865,95.437,540.657,538.803,0.0
51992.0,STARLINK-3643,PAYLOAD,2024-03-31 21:26:40,15.08857383,0.0001306,53.2174,316.5397,88.4987,271.6155,0.00036574,5.54e-05,0.0,0 STARLINK-3643,1 51992U 22025AN  24091.89351882  .00005540  00000-0  36574-3 0  9999,2 51992  53.2174 316.5397 0001306  88.4987 271.6155 15.08857383114054,6917.827,95.436,540.596,538.789,0.0
51992.0,STARLINK-3643,PAYLOAD,2024-04-01 14:55:55,15.08841605,0.0001181,53.2164,313.2698,80.6778,279.4348,0.00022229,3.252e-05,0.0,0 STARLINK-3643,1 51992U 22025AN  24092.62216793  .00003252  00000-0  22229-3 0  9992,2 51992  53.2164 313.2698 0001181  80.6778 279.4348 15.08841605114166,6917.875,95.437,540.557,538.923,0.0
51992.0,STARLINK-3643,PAYLOAD,2024-04-01 21:17:27,15.08839488,0.0001128,53.2162,312.0799,70.0627,290.0486,5.1346e-05,5.29e-06,0.0,0 STARLINK-3643,1 51992U 22025AN  24092.88712785  .00000529  00000-0  51346-4 0  9999,2 51992  53.2162 312.0799 0001128  70.0627 290.0486 15.08839488115754,6917.882,95.438,540.527,538.967,0.0
51992.0,STARLINK-3643,PAYLOAD,2024-04-02 00:28:14,15.0884106,0.000113,53.2163,311.4856,67.175,292.9362,6.3524e-05,7.23e-06,0.0,0 STARLINK-3643,1 51992U 22025AN  24093.01960718  .00000723  00000-0  63524-4 0  9993,2 51992  53.2163 311.4856 0001130  67.1750 292.9362 15.08841060114223,6917.877,95.437,540.524,538.96,0.0
